[{"OBJECT_NAME":"STARLINK-34252","OBJECT_ID":"2025-124P","EPOCH":"2026-03-09T12:40:02.547264","MEAN_MOTION":15.2758569,"ECCENTRICITY":0.00019593,"INCLINATION":42.9998,"RA_OF_ASC_NODE":122.8081,"ARG_OF_PERICENTER":261.2103,"MEAN_ANOMALY":98.8527,"EPHEMERIS_TYPE":0,"CLASSIFICATION_TYPE":"U","NORAD_CAT_ID":64330,"ELEMENT_SET_NO":999,"REV_AT_EPOCH":4175,"BSTAR":0.00099127242,"MEAN_MOTION_DOT":0.00027121,"MEAN_MOTION_DDOT":0},{"OBJECT_NAME":"CZ-6A DEB","OBJECT_ID":"2022-151QV","EPOCH":"2026-03-09T04:36:08.895168","MEAN_MOTION":15.24642942,"ECCENTRICITY":0.00273347,"INCLINATION":98.639,"RA_OF_ASC_NODE":154.2763,"ARG_OF_PERICENTER":174.5721,"MEAN_ANOMALY":185.5815,"EPHEMERIS_TYPE":0,"CLASSIFICATION_TYPE":"U","NORAD_CAT_ID":54908,"ELEMENT_SET_NO":999,"REV_AT_EPOCH":17373,"BSTAR":0.0098290719,"MEAN_MOTION_DOT":0.00253193,"MEAN_MOTION_DDOT":0}]
